{
    "links": {
        "self": "http://www.neowsapp.com/rest/v1/neo/3715535?api_key=iIulBulltgU6a56xZRHN4H3l9WmuAYTsLGpBGhQ2"
    },
    "id": "3715535",
    "neo_reference_id": "3715535",
    "name": "(2015 GZ5)",
    "designation": "2015 GZ5",
    "nasa_jpl_url": "http://ssd.jpl.nasa.gov/sbdb.cgi?sstr=3715535",
    "absolute_magnitude_h": 25.3,
    "estimated_diameter": {
        "kilometers": {
            "estimated_diameter_min": 0.0231502122,
            "estimated_diameter_max": 0.0517654482
        },
        "meters": {
            "estimated_diameter_min": 23.150212221,
            "estimated_diameter_max": 51.7654482198
        },
        "miles": {
            "estimated_diameter_min": 0.0143848705,
            "estimated_diameter_max": 0.0321655483
        },
        "feet": {
            "estimated_diameter_min": 75.9521422633,
            "estimated_diameter_max": 169.8341531374
        }
    },
    "is_potentially_hazardous_asteroid": false,
    "close_approach_data": [
        {
            "close_approach_date": "1942-11-16",
            "close_approach_date_full": "1942-Nov-16 10:17",
            "epoch_date_close_approach": -856014180000,
            "relative_velocity": {
                "kilometers_per_second": "13.8766354205",
                "kilometers_per_hour": "49955.8875138198",
                "miles_per_hour": "31040.6457721288"
            },
            "miss_distance": {
                "astronomical": "0.2762520956",
                "lunar": "107.4620651884",
                "kilometers": "41326725.084796372",
                "miles": "25679236.2056870536"
            },
            "orbiting_body": "Earth"
        },
        {
            "close_approach_date": "2007-11-08",
            "close_approach_date_full": "2007-Nov-08 22:26",
            "epoch_date_close_approach": 1194560760000,
            "relative_velocity": {
                "kilometers_per_second": "11.784496873",
                "kilometers_per_hour": "42424.1887429703",
                "miles_per_hour": "26360.7410553195"
            },
            "miss_distance": {
                "astronomical": "0.3816483967",
                "lunar": "148.4612263163",
                "kilometers": "57093787.235235029",
                "miles": "35476434.3238562402"
            },
            "orbiting_body": "Earth"
        },
        {
            "close_approach_date": "2014-10-30",
            "close_approach_date_full": "2014-Oct-30 13:54",
            "epoch_date_close_approach": 1414677240000,
            "relative_velocity": {
                "kilometers_per_second": "12.1372559135",
                "kilometers_per_hour": "43694.1212885521",
                "miles_per_hour": "27149.8277528784"
            },
            "miss_distance": {
                "astronomical": "0.4915669347",
                "lunar": "191.2195375983",
                "kilometers": "73537366.393549089",
                "miles": "45694000.6179878682"
            },
            "orbiting_body": "Earth"
        },
        {
            "close_approach_date": "2015-04-09",
            "close_approach_date_full": "2015-Apr-09 00:02",
            "epoch_date_close_approach": 1428537720000,
            "relative_velocity": {
                "kilometers_per_second": "15.0480795792",
                "kilometers_per_hour": "54173.0864852953",
                "miles_per_hour": "33661.0492108214"
            },
            "miss_distance": {
                "astronomical": "0.0167373185",
                "lunar": "6.5108168965",
                "kilometers": "2503867.197111595",
                "miles": "1555830.931446211"
            },
            "orbiting_body": "Earth"
        },
        {
            "close_approach_date": "2022-04-19",
            "close_approach_date_full": "2022-Apr-19 00:10",
            "epoch_date_close_approach": 1650327000000,
            "relative_velocity": {
                "kilometers_per_second": "18.9377171065",
                "kilometers_per_hour": "68175.7815833366",
                "miles_per_hour": "42361.7793954905"
            },
            "miss_distance": {
                "astronomical": "0.1863654076",
                "lunar": "72.4961435564",
                "kilometers": "27879868.018641812",
                "miles": "17323746.6739765256"
            },
            "orbiting_body": "Earth"
        }
    ],
    "orbital_data": {
        "orbit_id": "5",
        "orbit_determination_date": "2019-07-17 06:10:40",
        "first_observation_date": "2015-04-08",
        "last_observation_date": "2015-04-14",
        "data_arc_in_days": 6,
        "observations_used": 34,
        "orbit_uncertainty": "7",
        "minimum_orbit_intersection": ".0164265",
        "jupiter_tisserand_invariant": "4.471",
        "epoch_osculation": "2459000.5",
        "eccentricity": ".4074105613829628",
        "semi_major_axis": "1.456259865983379",
        "inclination": "21.75548647057209",
        "ascending_node_longitude": "20.14635144524316",
        "orbital_period": "641.8842919829477",
        "perihelion_distance": ".8629642164636127",
        "perihelion_argument": "117.3794374917906",
        "aphelion_distance": "2.049555515503146",
        "perihelion_time": "2459000.275694410279",
        "mean_anomaly": ".125801508633412",
        "mean_motion": ".5608487456327468",
        "equinox": "J2000",
        "orbit_class": {
            "orbit_class_type": "APO",
            "orbit_class_description": "Near-Earth asteroid orbits which cross the Earth’s orbit similar to that of 1862 Apollo",
            "orbit_class_range": "a (semi-major axis) > 1.0 AU; q (perihelion) < 1.017 AU"
        }
    },
    "is_sentry_object": false
}